$$SOE
2460728.500000000, A.D. 2025-Feb-22 00:00:00.0000, 6.663175397670408E+08, 3.086080770022255E+08, 5.993952688552688E+07,
2460735.500000000, A.D. 2025-Mar-01 00:00:00.0000, 6.627440088775659E+08, 3.160236915821190E+08, 5.904195032706229E+07,
2460742.500000000, A.D. 2025-Mar-08 00:00:00.0000, 6.590899224182628E+08, 3.234008780877346E+08, 5.813719303324974E+07,
2460749.500000000, A.D. 2025-Mar-15 00:00:00.0000, 6.553556794267050E+08, 3.307387181450161E+08, 5.722536046107814E+07,
2460756.500000000, A.D. 2025-Mar-22 00:00:00.0000, 6.515416891754997E+08, 3.380362997775343E+08, 5.630655940718488E+07,
2460763.500000000, A.D. 2025-Mar-29 00:00:00.0000, 6.476483702694407E+08, 3.452927157365497E+08, 5.538089792773281E+07,
2460770.500000000, A.D. 2025-Apr-05 00:00:00.0000, 6.436761514346422E+08, 3.525070627143074E+08, 5.444848517555475E+07,
2460777.500000000, A.D. 2025-Apr-12 00:00:00.0000, 6.396254720734836E+08, 3.596784415446472E+08, 5.350943133939156E+07,
2460784.500000000, A.D. 2025-Apr-19 00:00:00.0000, 6.354967823981121E+08, 3.668059575098690E+08, 5.256384763009125E+07,
2460791.500000000, A.D. 2025-Apr-26 00:00:00.0000, 6.312905434141798E+08, 3.738887205511509E+08, 5.161184627201243E+07,
2460798.500000000, A.D. 2025-May-03 00:00:00.0000, 6.270072268685114E+08, 3.809258454020355E+08, 5.065354049056059E+07,
2460805.500000000, A.D. 2025-May-10 00:00:00.0000, 6.226473151893083E+08, 3.879164516539764E+08, 4.968904449377212E+07,
2460812.500000000, A.D. 2025-May-17 00:00:00.0000, 6.182113014556537E+08, 3.948596637132140E+08, 4.871847344110331E+07,
2460819.500000000, A.D. 2025-May-24 00:00:00.0000, 6.136996895703130E+08, 4.017546105947848E+08, 4.774194337894675E+07,
2460826.500000000, A.D. 2025-May-31 00:00:00.0000, 6.091129950537077E+08, 4.086004258648071E+08, 4.675957112991852E+07,
2460833.500000000, A.D. 2025-Jun-07 00:00:00.0000, 6.044517460580393E+08, 4.153962489358326E+08, 4.577147427109879E+07,
2460840.500000000, A.D. 2025-Jun-14 00:00:00.0000, 5.997164822367270E+08, 4.221412270485872E+08, 4.477777136361063E+07,
2460847.500000000, A.D. 2025-Jun-21 00:00:00.0000, 5.949077526861019E+08, 4.288345146692466E+08, 4.377858205469593E+07,
2460854.500000000, A.D. 2025-Jun-28 00:00:00.0000, 5.900261160879679E+08, 4.354752720670701E+08, 4.277402690963697E+07,
2460861.500000000, A.D. 2025-Jul-05 00:00:00.0000, 5.850721415362794E+08, 4.420626652287626E+08, 4.176422728888103E+07,
2460868.500000000, A.D. 2025-Jul-12 00:00:00.0000, 5.800464088568583E+08, 4.485958663042989E+08, 4.074930531384739E+07,
2460875.500000000, A.D. 2025-Jul-19 00:00:00.0000, 5.749495086097670E+08, 4.550740540092524E+08, 3.972938385711530E+07,
2460882.500000000, A.D. 2025-Jul-26 00:00:00.0000, 5.697820419843402E+08, 4.614964139271008E+08, 3.870458653320217E+07,
2460889.500000000, A.D. 2025-Aug-02 00:00:00.0000, 5.645446206522679E+08, 4.678621387331656E+08, 3.767503768580219E+07,
2460896.500000000, A.D. 2025-Aug-09 00:00:00.0000, 5.592378666020811E+08, 4.741704283256044E+08, 3.664086236826766E+07,
2460903.500000000, A.D. 2025-Aug-16 00:00:00.0000, 5.538624120318615E+08, 4.804204898003911E+08, 3.560218630527344E+07,
2460910.500000000, A.D. 2025-Aug-23 00:00:00.0000, 5.484188995927281E+08, 4.866115372870313E+08, 3.455913581038287E+07,
2460917.500000000, A.D. 2025-Aug-30 00:00:00.0000, 5.429079833120298E+08, 4.927427923592791E+08, 3.351183768793496E+07,
2460924.500000000, A.D. 2025-Sep-06 00:00:00.0000, 5.373303287779800E+08, 4.988134860212039E+08, 3.246041933131596E+07,
2460931.500000000, A.D. 2025-Sep-13 00:00:00.0000, 5.316866109148175E+08, 5.048228597860930E+08, 3.140500896826231E+07,
2460938.500000000, A.D. 2025-Sep-20 00:00:00.0000, 5.259775126221498E+08, 5.107701642043513E+08, 3.034573561892146E+07,
2460945.500000000, A.D. 2025-Sep-27 00:00:00.0000, 5.202037253375075E+08, 5.166546579520478E+08, 2.928272892407805E+07,
2460952.500000000, A.D. 2025-Oct-04 00:00:00.0000, 5.143659495054471E+08, 5.224756080192183E+08, 2.821611907273039E+07,
2460959.500000000, A.D. 2025-Oct-11 00:00:00.0000, 5.084648945795299E+08, 5.282322900549743E+08, 2.714603678633106E+07,
2460966.500000000, A.D. 2025-Oct-18 00:00:00.0000, 5.025012788408730E+08, 5.339239885951606E+08, 2.607261331128570E+07,
2460973.500000000, A.D. 2025-Oct-25 00:00:00.0000, 4.964758291728128E+08, 5.395499971837790E+08, 2.499598040777746E+07,
2460980.500000000, A.D. 2025-Nov-01 00:00:00.0000, 4.903892808310758E+08, 5.451096184039478E+08, 2.391627033246058E+07,
2460987.500000000, A.D. 2025-Nov-08 00:00:00.0000, 4.842423772439309E+08, 5.506021637873354E+08, 2.283361580913451E+07,
2460994.500000000, A.D. 2025-Nov-15 00:00:00.0000, 4.780358699901091E+08, 5.560269535439270E+08, 2.174814996886030E+07,
2461001.500000000, A.D. 2025-Nov-22 00:00:00.0000, 4.717705193571675E+08, 5.613833163326740E+08, 2.066000624036238E+07,
2461008.500000000, A.D. 2025-Nov-29 00:00:00.0000, 4.654470953270913E+08, 5.666705902082984E+08, 1.956931829729268E+07,
2461015.500000000, A.D. 2025-Dec-06 00:00:00.0000, 4.590663767114291E+08, 5.718881246083549E+08, 1.847622025992313E+07,
2461022.500000000, A.D. 2025-Dec-13 00:00:00.0000, 4.526291488693407E+08, 5.770352800107641E+08, 1.738084683595145E+07,
2461029.500000000, A.D. 2025-Dec-20 00:00:00.0000, 4.461362035020452E+08, 5.821114262857046E+08, 1.628333316355568E+07,
2461036.500000000, A.D. 2025-Dec-27 00:00:00.0000, 4.395883394501063E+08, 5.871159423334842E+08, 1.518381466686812E+07,
2461043.500000000, A.D. 2026-Jan-03 00:00:00.0000, 4.329863630343031E+08, 5.920482163932178E+08, 1.408242700738460E+07,
2461050.500000000, A.D. 2026-Jan-10 00:00:00.0000, 4.263310880498574E+08, 5.969076463440859E+08, 1.297930606581083E+07,
2461057.500000000, A.D. 2026-Jan-17 00:00:00.0000, 4.196233356466504E+08, 6.016936399084322E+08, 1.187458792561328E+07,
2461064.500000000, A.D. 2026-Jan-24 00:00:00.0000, 4.128639341734561E+08, 6.064056147802494E+08, 1.076840885308355E+07,
2461071.500000000, A.D. 2026-Jan-31 00:00:00.0000, 4.060537190097094E+08, 6.110429986725588E+08, 9.660905271276176E+06,
2461078.500000000, A.D. 2026-Feb-07 00:00:00.0000, 3.991935324463807E+08, 6.156052292272753E+08, 8.552213717614651E+06,
2461085.500000000, A.D. 2026-Feb-14 00:00:00.0000, 3.922842238691080E+08, 6.200917537732059E+08, 7.442470760823518E+06,
2461092.500000000, A.D. 2026-Feb-21 00:00:00.0000, 3.853266506313143E+08, 6.245020295100738E+08, 6.331812888903111E+06,
2461099.500000000, A.D. 2026-Feb-28 00:00:00.0000, 3.783216785326510E+08, 6.288355252724869E+08, 5.220376561984032E+06,
2461106.500000000, A.D. 2026-Mar-07 00:00:00.0000, 3.712701798440519E+08, 6.330917229239416E+08, 4.108298459605873E+06,
2461113.500000000, A.D. 2026-Mar-14 00:00:00.0000, 3.641730316550322E+08, 6.372701160485272E+08, 2.995715477326453E+06,
2461120.500000000, A.D. 2026-Mar-21 00:00:00.0000, 3.570311163265259E+08, 6.413702088385785E+08, 1.882764546051592E+06,
2461127.500000000, A.D. 2026-Mar-28 00:00:00.0000, 3.498453220400485E+08, 6.453915162066393E+08, 7.695825425448418E+05,
2461134.500000000, A.D. 2026-Apr-04 00:00:00.0000, 3.426165428393694E+08, 6.493335641557575E+08, -3.436937322682738E+05,
2461141.500000000, A.D. 2026-Apr-11 00:00:00.0000, 3.353456784384999E+08, 6.531958900479561E+08, -1.456927561542392E+06,
2461148.500000000, A.D. 2026-Apr-18 00:00:00.0000, 3.280336339552628E+08, 6.569780427640933E+08, -2.569982322235197E+06,
2461155.500000000, A.D. 2026-Apr-25 00:00:00.0000, 3.206813196164014E+08, 6.606795827698402E+08, -3.682721499084443E+06,
2461162.500000000, A.D. 2026-May-02 00:00:00.0000, 3.132896504652195E+08, 6.643000820583013E+08, -4.795008707855105E+06,
2461169.500000000, A.D. 2026-May-09 00:00:00.0000, 3.058595461968073E+08, 6.678391239032778E+08, -5.906707744511873E+06,
2461176.500000000, A.D. 2026-May-16 00:00:00.0000, 2.983919314993557E+08, 6.712963025617875E+08, -7.017682683541447E+06,
2461183.500000000, A.D. 2026-May-23 00:00:00.0000, 2.908877369540050E+08, 6.746712239483964E+08, -8.127797946575820E+06,
2461190.500000000, A.D. 2026-May-30 00:00:00.0000, 2.833478984152141E+08, 6.779635076007012E+08, -9.236918124576718E+06,
2461197.500000000, A.D. 2026-Jun-06 00:00:00.0000, 2.757733545542769E+08, 6.811727866621367E+08, -1.034490779203871E+07,
2461204.500000000, A.D. 2026-Jun-13 00:00:00.0000, 2.681650462319765E+08, 6.842987060813687E+08, -1.145163163330001E+07,
2461211.500000000, A.D. 2026-Jun-20 00:00:00.0000, 2.605239171996869E+08, 6.873409219545493E+08, -1.255695459611374E+07,
2461218.500000000, A.D. 2026-Jun-27 00:00:00.0000, 2.528509144306570E+08, 6.902991016703494E+08, -1.366074194473088E+07,
2461225.500000000, A.D. 2026-Jul-04 00:00:00.0000, 2.451469880813108E+08, 6.931729240827678E+08, -1.476285927607176E+07,
2461232.500000000, A.D. 2026-Jul-11 00:00:00.0000, 2.374130913364731E+08, 6.959620795798309E+08, -1.586317253331766E+07,
2461239.500000000, A.D. 2026-Jul-18 00:00:00.0000, 2.296501802312435E+08, 6.986662700739625E+08, -1.696154802357370E+07,
2461246.500000000, A.D. 2026-Jul-25 00:00:00.0000, 2.218592134739761E+08, 7.012852089168118E+08, -1.805785244184431E+07,
2461253.500000000, A.D. 2026-Aug-01 00:00:00.0000, 2.140411523184641E+08, 7.038186206904899E+08, -1.915195290984625E+07,
2461260.500000000, A.D. 2026-Aug-08 00:00:00.0000, 2.061969607001899E+08, 7.062662408394599E+08, -2.024371705243388E+07,
2461267.500000000, A.D. 2026-Aug-15 00:00:00.0000, 1.983276060516807E+08, 7.086278155937135E+08, -2.133301311299565E+07,
2461274.500000000, A.D. 2026-Aug-22 00:00:00.0000, 1.904340600360160E+08, 7.109031034047374E+08, -2.241970993828544E+07,
2461281.500000000, A.D. 2026-Aug-29 00:00:00.0000, 1.825172969093755E+08, 7.130918765213814E+08, -2.350367673493004E+07,
2461288.500000000, A.D. 2026-Sep-05 00:00:00.0000, 1.745782916458639E+08, 7.151939198375208E+08, -2.458478302763698E+07,
2461295.500000000, A.D. 2026-Sep-12 00:00:00.0000, 1.666180202794780E+08, 7.172090295077581E+08, -2.566289884029973E+07,
2461302.500000000, A.D. 2026-Sep-19 00:00:00.0000, 1.586374605896443E+08, 7.191370128754632E+08, -2.673789480196682E+07,
$$EOE